RADARSAT-2              
1 32382U 07061A   24307.01439646  .00000429  00000+0  18318-3 0  9999
2 32382  98.5802 311.4141 0001109  91.5388 268.5921 14.29986646881434
CARTOSAT-2A             
1 32783U 08021A   24307.14916447  .00004203  00000+0  57892-3 0  9998
2 32783  97.8492   2.3745 0011098 231.0779 128.9444 14.78715823891391
HUANJING 1A (HJ-1A)     
1 33320U 08041A   24307.24576068  .00006017  00000+0  77786-3 0  9999
2 33320  97.6344 307.5670 0018170 281.6055  78.3118 14.81151196870783
HUANJING 1B (HJ-1B)     
1 33321U 08041B   24307.23502609  .00005086  00000+0  65341-3 0  9998
2 33321  97.6269 312.0276 0036916 326.8339  33.0560 14.81117224870804
GEOEYE 1                
1 33331U 08042A   24306.90930092  .00003308  00000+0  63815-3 0  9993
2 33331  98.1280  17.5038 0005300 111.4832 248.6936 14.64127286863450
THEOS                   
1 33396U 08049A   24307.12220515  .00000448  00000+0  23068-3 0  9996
2 33396  98.6421   9.9344 0001060 102.3967 257.7329 14.20076851833957
COSMO-SKYMED 3          
1 33412U 08054A   24307.10092982  .00013993  00000+0  11228-2 0  9997
2 33412  97.8630 145.1107 0019192 107.4902 252.8421 15.00052928867942
YAOGAN-4                
1 33446U 08061A   24307.05834923  .00005393  00000+0  70453-3 0  9996
2 33446  97.8872 236.4359 0014260 191.8025 168.2855 14.80818219857955
GOSAT (IBUKI)           
1 33492U 09002A   24306.91230229  .00004567  00000+0  81288-3 0  9996
2 33492  98.0502  55.9323 0001352  96.4531 263.6827 14.67567765844591
YAOGAN-6                
1 34839U 09021A   24307.16998195  .00066285  00000+0  84631-3 0  9994
2 34839  97.1871 274.6342 0015269  40.6795 319.5599 15.58918202864868
DEIMOS-1                
1 35681U 09041A   24307.10918977  .00003433  00000+0  53086-3 0  9992
2 35681  97.6837 121.7422 0000842  15.2199 344.9036 14.73871136819621
DUBAISAT-1              
1 35682U 09041B   24307.12958771  .00006749  00000+0  10653-2 0  9996
2 35682  97.9271  79.7085 0011221 166.2499 193.9016 14.72645952817933
OCEANSAT-2              
1 35931U 09051A   24307.05664303  .00000082  00000+0  81717-4 0  9996
2 35931  98.2499 342.3995 0016946 106.4112 253.8919 13.99527930796502
WORLDVIEW-2 (WV-2)      
1 35946U 09055A   24306.86759483  .00001027  00000+0  36131-3 0  9997
2 35946  98.4910  17.6039 0004246 169.2020 190.9258 14.36983769790558
SMOS                    
1 36036U 09059A   24306.80365982  .00001640  00000+0  53715-3 0  9991
2 36036  98.4409 131.7588 0001305  89.0602 271.0736 14.39745816788211
YAOGAN-7                
1 36110U 09069A   24307.05609135  .00003040  00000+0  43915-3 0  9991
2 36110  98.0819 183.1981 0025924 143.0608 217.2393 14.76738331802238
TANDEM-X                
1 36605U 10030A   24306.44319571  .00008598  00000+0  41217-3 0  9990
2 36605  97.4456 311.6485 0001812  94.1775 265.9667 15.19149009796653
CARTOSAT-2B             
1 36795U 10035A   24307.11772592  .00001650  00000+0  23159-3 0  9993
2 36795  97.8430   1.8807 0011471 315.3845  44.6443 14.78711947772437
YAOGAN-10               
1 36834U 10038A   24307.10178907  .00003392  00000+0  41941-3 0  9993
2 36834  97.9423 323.4763 0001363  94.2521 359.3189 14.83446625769445
COSMO-SKYMED 4          
1 37216U 10060A   24307.10639349  .00002557  00000+0  32776-3 0  9993
2 37216  97.8873 128.2673 0001662  86.9853 273.1550 14.82146522756923
RESOURCESAT-2           
1 37387U 11015A   24307.17424159  .00000945  00000+0  44952-3 0  9999
2 37387  98.5616   8.9857 0005256  80.3023 279.8748 14.21701017702598
HAIYANG-2A              
1 37781U 11043A   24307.07008924  .00000094  00000+0  13606-3 0  9992
2 37781  99.3309 308.3365 0001595  83.2312 276.9021 13.78809952665330
RASAT                   
1 37791U 11044D   24307.07547505  .00003508  00000+0  63420-3 0  9999
2 37791  98.0767  36.4339 0019831 267.9022 193.2563 14.66904364706357
SRMSAT                  
1 37841U 11058D   24306.94887399  .00001154  00000+0  48520-3 0  9992
2 37841  19.9729  43.4692 0011710 168.6079 347.7321 14.11264890674041
YAOGAN-13               
1 37941U 11072A   24307.13525248  .00139629  00000+0  15542-2 0  9999
2 37941  97.7250 300.8601 0003848 106.4855 253.6825 15.62387906717852
PLEIADES 1A             
1 38012U 11076F   24307.15686573  .00002394  00000+0  52434-3 0  9994
2 38012  98.1922  19.7873 0001246 108.9248 281.2606 14.58586713685706
ZIYUAN 1-02C (ZY 1-02C) 
1 38038U 11079A   24307.14299418  .00002348  00000+0  80214-3 0  9998
2 38038  98.4832  13.7035 0005431 277.2872 112.6512 14.37261541674183
ZIYUAN 3-1 (ZY 3-1)     
1 38046U 12001A   24307.16532911  .00048694  00000+0  12116-2 0  9992
2 38046  97.2264   6.6374 0003932  26.8305 333.3144 15.40113396712105
ARIRANG-3 (KOMPSAT-3)   
1 38338U 12025B   24307.15336969  .00003349  00000+0  65675-3 0  9993
2 38338  98.2783 253.7128 0010327 160.4259 199.7341 14.63377654664918
KANOPUS-V 1             
1 38707U 12039A   24306.84356216  .00545889  11510-3  19054-2 0  9991
2 38707  97.4983 253.2857 0010324 132.7268 227.4874 15.89214943682699
EXACTVIEW-1 (ADS-1B)    
1 38709U 12039C   24306.84179606  .00000948  00000+0  42772-3 0  9993
2 38709  98.9518  41.2947 0011839  80.0571 280.1943 14.24624125638352
SPOT 6                  
1 38755U 12047A   24307.09857569  .00002288  00000+0  50196-3 0  9990
2 38755  98.2075  12.1811 0001111  80.3867 279.7458 14.58548556646774
PLEIADES 1B             
1 39019U 12068A   24307.11641199  .00002416  00000+0  52911-3 0  9990
2 39019  98.1843  19.6426 0001225  98.7608 261.3730 14.58576077634547
GOKTURK 2               
1 39030U 12073A   24307.09134977  .00002703  00000+0  41459-3 0  9991
2 39030  97.7313 161.8586 0002090  88.4470 271.6979 14.74397059637257
LANDSAT 8               
1 39084U 13008A   24306.68188659 -.00002076  00000+0 -45117-3 0  9999
2 39084  98.2155  14.5322 0001311  90.8857 269.2491 14.57076787611616
SARAL                   
1 39086U 13009A   24306.89179600  .00000760  00000+0  29628-3 0  9996
2 39086  98.5505 130.1398 0001088 209.6527 150.4595 14.32563468610797
GAOFEN-1                
1 39150U 13018A   24307.10788003  .00003876  00000+0  56216-3 0  9990
2 39150  97.9765  17.9081 0020194  19.4737 340.7240 14.76473811620916
VNREDSAT 1              
1 39160U 13021B   24307.12779844  .00003766  00000+0  72406-3 0  9997
2 39160  97.9817   9.8061 0001266 103.8289 256.3055 14.64197997613634
ARIRANG-5 (KOMPSAT-5)   
1 39227U 13042A   24307.10856713  .00006963  00000+0  50140-3 0  9996
2 39227  97.6182 131.0926 0002430  37.7239 322.4157 15.04503261614899
SKYSAT-A                
1 39418U 13066C   24306.89293689  .00013675  00000+0  90619-3 0  9999
2 39418  97.4699   3.0777 0023784 190.5893 169.4837 15.07174417599079
DUBAISAT-2              
1 39419U 13066D   24307.11837016  .00012841  00000+0  95969-3 0  9991
2 39419  97.4277 306.0146 0010000 257.5555 102.4552 15.02877811597223
GPM-CORE                
1 39574U 14009C   24306.76432989  .00023256  00000+0  50161-3 0  9998
2 39574  64.9796 132.3638 0013046 259.7000 100.2669 15.44468605606306
SENTINEL-1A             
1 39634U 14016A   24307.11630018  .00001121  00000+0  24747-3 0  9994
2 39634  98.1820 312.2328 0001313  89.2999 270.8351 14.59203041563706
KAZEOSAT 1              
1 39731U 14024A   24307.15558256  .00001381  00000+0  43390-3 0  9991
2 39731  98.3840  21.2636 0000987  81.1230 279.0071 14.42035827553281
ALOS-2                  
1 39766U 14029A   24306.40487236  .00010087  00000+0  13551-2 0  9998
2 39766  97.9238  41.0801 0001297  98.2514 261.8845 14.79487884563933
KAZEOSAT 2              
1 40010U 14033A   24307.05658622  .00002880  00000+0  35858-3 0  9995
2 40010  97.5972 165.5097 0012757 114.7744 245.4799 14.83163469561107
HODOYOSHI-4             
1 40011U 14033B   24307.05739254  .00006275  00000+0  73119-3 0  9991
2 40011  97.5648 149.9355 0026231 104.2144 256.1988 14.85314956560829
DEIMOS-2                
1 40013U 14033D   24307.11414191  .00008079  00000+0  83833-3 0  9998
2 40013  97.6593 189.5868 0002282  95.8276 264.3203 14.90210088562292
HODOYOSHI-3             
1 40015U 14033F   24306.92198527  .00007511  00000+0  93285-3 0  9992
2 40015  97.5971 125.6912 0035300 141.6966 218.6765 14.82415979559778
SPOT 7                  
1 40053U 14034A   24307.12545097  .00002917  00000+0  61907-3 0  9997
2 40053  98.1431  11.5217 0000979  91.3412 268.7900 14.59865866550732
SKYSAT-B                
1 40072U 14037D   24306.88258342  .00006593  00000+0  77678-3 0  9993
2 40072  98.3296 224.7562 0007172  47.5025 312.6793 14.85125532557958
WORLDVIEW-3 (WV-3)      
1 40115U 14048A   24306.88584330  .00005887  00000+0  70446-3 0  9993
2 40115  97.8650  18.3370 0007403 120.9229 239.2714 14.84490885554002
GAOFEN-2                
1 40118U 14049A   24307.21713666  .00005306  00000+0  70080-3 0  9991
2 40118  98.0942 358.4157 0004967 342.7470  17.3572 14.80435106551653
YAOGAN-21               
1 40143U 14053A   24307.08794697  .00025644  00000+0  10579-2 0  9995
2 40143  97.2350   0.4366 0009107  35.1622 325.0215 15.23995164564812
YAOGAN-22               
1 40275U 14063A   24306.89275092 -.00000014  00000+0  86569-4 0  9992
2 40275 100.6850  79.7764 0006818  85.2765 274.9125 13.15494564481933
ASNARO                  
1 40298U 14070A   24307.23639008  .00036354  00000+0  17055-2 0  9992
2 40298  97.4016  26.1774 0005254 121.2266 238.9484 15.19550935554134
HODOYOSHI-1             
1 40299U 14070B   24307.09694769  .00102950  00000+0  11129-2 0  9994
2 40299  97.1186   6.6047 0004740 241.5325 118.5457 15.63263053556548
YAOGAN-23               
1 40305U 14071A   24307.13593619  .00258392  00000+0  14024-2 0  9999
2 40305  97.6866 303.7687 0004347 111.4029 248.7702 15.79301398553915
YAOGAN-24               
1 40310U 14072A   24307.13036025  .00004349  00000+0  63719-3 0  9996
2 40310  98.0734  71.4043 0011560   9.4698 350.6727 14.76073268536399
